GLOBALSTAR M001         
1 25162U 98008A   25295.51840843 -.00000110  00000+0 -98680-4 0  9995
2 25162  52.0047 322.6144 0001533 155.2682  10.6642 12.38219494259489
GLOBALSTAR M004         
1 25163U 98008B   25295.51465470 -.00000072  00000+0  17883-3 0  9996
2 25163  52.0029  25.7020 0003126 202.4612 171.1810 12.63406231277780
GLOBALSTAR M002         
1 25164U 98008C   25295.96033623 -.00000068  00000+0  16069-3 0  9997
2 25164  52.0010 279.8346 0001754  22.0737 338.0158 11.61512898198913
GLOBALSTAR M003         
1 25165U 98008D   25295.38952236 -.00000178  00000+0 -94402-3 0  9994
2 25165  51.9922 176.2181 0007611 183.0668 348.3497 12.12053729248646
GLOBALSTAR M014         
1 25306U 98023A   25295.50905064 -.00000041  00000+0  68035-3 0  9990
2 25306  51.9826 201.5119 0000134 182.3196 348.0533 11.65482785206018
GLOBALSTAR M006         
1 25307U 98023B   25295.36863256 -.00000055  00000+0  42688-3 0  9992
2 25307  51.9931 259.0938 0003380 344.1070 184.3078 11.58177513231563
GLOBALSTAR M015         
1 25308U 98023C   25295.97426389 -.00000075  00000+0 -33723-4 0  9996
2 25308  51.9859   1.9129 0012130 303.0254 228.1746 11.48859352208762
GLOBALSTAR M008         
1 25309U 98023D   25295.75011373 -.00000058  00000+0  29752-3 0  9992
2 25309  51.9955 188.2153 0003508  80.5308 318.1060 12.36074333253622
